NORAD_CAT_ID,OBJECT_NAME,OBJECT_TYPE,EPOCH,MEAN_MOTION,ECCENTRICITY,INCLINATION,RA_OF_ASC_NODE,ARG_OF_PERICENTER,MEAN_ANOMALY,BSTAR,MEAN_MOTION_DOT,MEAN_MOTION_DDOT,TLE_LINE0,TLE_LINE1,TLE_LINE2,SEMIMAJOR_AXIS,PERIOD,APOGEE,PERIGEE,DECAYED
56475.0,STARLINK-5541,PAYLOAD,2024-08-01 13:24:52,14.98320521,0.0003217,70.0011,159.7278,271.9435,88.1356,-5.3111e-05,-7.27e-06,0.0,0 STARLINK-5541,1 56475U 23064AD  24214.55894236 -.00000727  00000-0 -53111-4 0  9990,2 56475  70.0011 159.7278 0003217 271.9435  88.1356 14.98320521 68090,6950.222,96.108,574.323,569.851,0.0
56475.0,STARLINK-5541,PAYLOAD,2024-08-01 21:25:32,14.98326286,0.0003839,70.0003,158.885,271.6066,88.4653,-6.4939e-05,-8.68e-06,0.0,0 STARLINK-5541,1 56475U 23064AD  24214.89273845 -.00000868  00000-0 -64939-4 0  9990,2 56475  70.0003 158.8850 0003839 271.6066  88.4653 14.98326286 68507,6950.204,96.107,574.738,569.401,0.0
56475.0,STARLINK-5541,PAYLOAD,2024-08-01 23:01:39,14.98343951,0.0002576,70.001,158.7186,273.0064,87.08,0.00015627,1.773e-05,0.0,0 STARLINK-5541,1 56475U 23064AD  24214.95948373  .00001773  00000-0  15627-3 0  9995,2 56475  70.0010 158.7186 0002576 273.0064  87.0800 14.98343951 68155,6950.15,96.106,573.805,570.224,0.0
56475.0,STARLINK-5541,PAYLOAD,2024-08-02 03:50:03,14.98348435,0.0002774,70.0002,158.212,276.0022,84.0821,0.00018364,2.1e-05,0.0,0 STARLINK-5541,1 56475U 23064AD  24215.15975912  .00002100  00000-0  18364-3 0  9993,2 56475  70.0002 158.2120 0002774 276.0022  84.0821 14.98348435 68541,6950.136,96.106,573.929,570.073,0.0
56475.0,STARLINK-5541,PAYLOAD,2024-08-02 13:26:51,14.98345787,0.0002725,70.0005,157.2019,276.6985,83.3864,9.9057e-05,1.09e-05,0.0,0 STARLINK-5541,1 56475U 23064AD  24215.56032004  .00001090  00000-0  99057-4 0  9990,2 56475  70.0005 157.2019 0002725 276.6985  83.3864 14.98345787 68243,6950.144,96.106,573.903,570.115,0.0
56475.0,STARLINK-5541,PAYLOAD,2024-08-02 21:27:32,14.98316783,0.0002967,70.0013,156.3613,272.1698,87.9121,0.00039984,4.679e-05,0.0,0 STARLINK-5541,1 56475U 23064AD  24215.89412927  .00004679  00000-0  39984-3 0  9990,2 56475  70.0013 156.3613 0002967 272.1698  87.9121 14.98316783 68657,6950.234,96.108,574.161,570.037,0.0
56475.0,STARLINK-5541,PAYLOAD,2024-08-03 13:28:53,14.9831899,0.0002714,70.0005,154.6785,274.0041,86.0808,0.00027998,3.248e-05,0.0,0 STARLINK-5541,1 56475U 23064AD  24216.56173426  .00003248  00000-0  27998-3 0  9996,2 56475  70.0005 154.6785 0002714 274.0041  86.0808 14.98318990 68397,6950.227,96.108,573.978,570.206,0.0
56475.0,STARLINK-5541,PAYLOAD,2024-08-03 21:29:33,14.98338147,0.000289,70.0008,153.8349,274.9902,85.0927,-0.00013336,-1.684e-05,0.0,0 STARLINK-5541,1 56475U 23064AD  24216.89553141 -.00001684  00000-0 -13336-3 0  9993,2 56475  70.0008 153.8349 0002890 274.9902  85.0927 14.98338147 68800,6950.168,96.106,574.041,570.024,0.0
56475.0,STARLINK-5541,PAYLOAD,2024-08-04 13:30:53,14.98342118,0.0002709,70.0009,152.1522,275.7002,84.3848,-0.00015018,-1.885e-05,0.0,0 STARLINK-5541,1 56475U 23064AD  24217.56312492 -.00001885  00000-0 -15018-3 0  9992,2 56475  70.0009 152.1522 0002709 275.7002  84.3848 14.98342118 68543,6950.155,96.106,573.903,570.138,0.0
56475.0,STARLINK-5541,PAYLOAD,2024-08-04 21:31:34,14.98335316,0.0002794,70.0007,151.3114,271.2623,88.8216,4.5038e-05,4.45e-06,0.0,0 STARLINK-5541,1 56475U 23064AD  24217.89692236  .00000445  00000-0  45038-4 0  9990,2 56475  70.0007 151.3114 0002794 271.2623  88.8216 14.98335316 68958,6950.176,96.107,573.983,570.1,0.0
56475.0,STARLINK-5541,PAYLOAD,2024-08-04 23:07:42,14.9833541,0.0002766,70.0007,151.1422,271.4451,88.6391,3.8701e-05,3.69e-06,0.0,0 STARLINK-5541,1 56475U 23064AD  24217.96368224  .00000369  00000-0  38701-4 0  9999,2 56475  70.0007 151.1422 0002766 271.4451  88.6391 14.98335410 68607,6950.176,96.107,573.964,570.119,0.0
56475.0,STARLINK-5541,PAYLOAD,2024-08-05 03:56:05,14.98344289,0.0002711,70.0004,150.637,266.8567,93.2282,0.00010618,1.175e-05,0.0,0 STARLINK-5541,1 56475U 23064AD  24218.16395366  .00001175  00000-0  10618-3 0  9991,2 56475  70.0004 150.6370 0002711 266.8567  93.2282 14.98344289 68993,6950.149,96.106,573.898,570.13,0.0
56475.0,STARLINK-5541,PAYLOAD,2024-08-05 19:57:27,14.98317901,0.0003053,70.0008,148.9549,269.3926,90.6883,-6.5712e-05,-8.77e-06,0.0,0 STARLINK-5541,1 56475U 23064AD  24218.83157398 -.00000877  00000-0 -65712-4 0  9992,2 56475  70.0008 148.9549 0003053 269.3926  90.6883 14.98317901 69093,6950.23,96.108,574.217,569.973,0.0
56475.0,STARLINK-5541,PAYLOAD,2024-08-05 23:09:44,14.98314619,0.0003016,70.0001,148.618,276.9949,83.0867,-9.1193e-05,-1.18e-05,0.0,0 STARLINK-5541,1 56475U 23064AD  24218.96509813 -.00001180  00000-0 -91193-4 0  9999,2 56475  70.0001 148.6180 0003016 276.9949  83.0867 14.98314619 68755,6950.24,96.108,574.202,570.009,0.0
56475.0,STARLINK-5541,PAYLOAD,2024-08-06 03:58:09,14.98312318,0.0002934,70.0005,148.1139,270.5935,89.4887,-0.00017976,-2.236e-05,0.0,0 STARLINK-5541,1 56475U 23064AD  24219.16538367 -.00002236  00000-0 -17976-3 0  9997,2 56475  70.0005 148.1139 0002934 270.5935  89.4887 14.98312318 69141,6950.248,96.108,574.152,570.073,0.0
56475.0,STARLINK-5541,PAYLOAD,2024-08-06 11:58:48,14.98322249,0.0003043,70.0002,147.2736,266.6353,93.4458,-0.00012035,-1.528e-05,0.0,0 STARLINK-5541,1 56475U 23064AD  24219.49917790 -.00001528  00000-0 -12035-3 0  9998,2 56475  70.0002 147.2736 0003043 266.6353  93.4458 14.98322249 69191,6950.217,96.107,574.197,569.967,0.0
56475.0,STARLINK-5541,PAYLOAD,2024-08-06 18:22:43,14.98754688,0.0008116,70.0006,146.597,275.8146,84.2088,0.004462,0.00054181,0.0,0 STARLINK-5541,1 56475U 23064AD  24219.76577772  .00054181  00000-0  44620-2 0  9995,2 56475  70.0006 146.5970 0008116 275.8146  84.2088 14.98754688 69233,6948.88,96.08,576.385,565.105,0.0
56475.0,STARLINK-5541,PAYLOAD,2024-08-07 02:00:01,14.98359282,0.0003145,70.002,145.7992,272.3411,357.8504,-0.0026291,-0.00031347,0.0,0 STARLINK-5541,1 56475U 23064AD  24220.08334491 -.00031347  00000-0 -26291-2 0  9996,2 56475  70.0020 145.7992 0003145 272.3411 357.8504 14.98359282 69275,6950.102,96.105,574.153,569.782,0.0
56475.0,STARLINK-5541,PAYLOAD,2024-08-07 08:00:01,14.98347616,0.0003103,70.0016,145.1689,272.5114,265.8133,-0.001484,-0.00017763,0.0,0 STARLINK-5541,1 56475U 23064AD  24220.33334491 -.00017763  00000-0 -14840-2 0  9997,2 56475  70.0016 145.1689 0003103 272.5114 265.8133 14.98347616  5783,6950.138,96.106,574.16,569.847,0.0
56475.0,STARLINK-5541,PAYLOAD,2024-08-07 20:01:29,14.98326368,0.0003105,69.9999,143.9054,273.9631,86.1173,0.00029787,3.463e-05,0.0,0 STARLINK-5541,1 56475U 23064AD  24220.83436416  .00003463  00000-0  29787-3 0  9999,2 56475  69.9999 143.9054 0003105 273.9631  86.1173 14.98326368 69399,6950.204,96.107,574.227,569.911,0.0
56475.0,STARLINK-5541,PAYLOAD,2024-08-08 04:02:08,14.98334398,0.0002547,70.0014,143.0666,254.7809,105.3069,0.00036156,4.224e-05,0.0,0 STARLINK-5541,1 56475U 23064AD  24221.16815809  .00004224  00000-0  36156-3 0  9997,2 56475  70.0014 143.0666 0002547 254.7809 105.3069 14.98334398 69089,6950.179,96.107,573.815,570.274,0.0
56475.0,STARLINK-5541,PAYLOAD,2024-08-08 20:03:29,14.983423,0.0002583,70.0025,141.3867,253.4015,106.686,-1.1572e-06,-1.07e-06,0.0,0 STARLINK-5541,1 56475U 23064AD  24221.83576019 -.00000107  00000-0 -11572-5 0  9993,2 56475  70.0025 141.3867 0002583 253.4015 106.6860 14.98342300 69546,6950.155,96.106,573.815,570.225,0.0
56475.0,STARLINK-5541,PAYLOAD,2024-08-08 21:39:37,14.98342056,0.0002531,70.0033,141.217,248.6692,111.4197,3.7549e-05,3.55e-06,0.0,0 STARLINK-5541,1 56475U 23064AD  24221.90251805  .00000355  00000-0  37549-4 0  9998,2 56475  70.0033 141.2170 0002531 248.6692 111.4197 14.98342056 69197,6950.156,96.106,573.78,570.262,0.0
56475.0,STARLINK-5541,PAYLOAD,2024-08-09 04:04:08,14.98357373,0.0002949,70.0004,140.539,276.2022,83.8801,0.00033068,3.858e-05,0.0,0 STARLINK-5541,1 56475U 23064AD  24222.16954032  .00003858  00000-0  33068-3 0  9991,2 56475  70.0004 140.5390 0002949 276.2022  83.8801 14.98357373 69594,6950.108,96.105,574.023,569.924,0.0
56475.0,STARLINK-5541,PAYLOAD,2024-08-09 12:04:49,14.98351204,0.0002606,70.0004,139.697,278.0258,82.0606,-0.00013707,-1.729e-05,0.0,0 STARLINK-5541,1 56475U 23064AD  24222.50335130 -.00001729  00000-0 -13707-3 0  9996,2 56475  70.0004 139.6970 0002606 278.0258  82.0606 14.98351204 69645,6950.127,96.106,573.804,570.181,0.0
56475.0,STARLINK-5541,PAYLOAD,2024-08-09 20:05:31,14.98323415,0.000281,70.0007,138.855,266.2046,93.8792,-0.00028958,-3.546e-05,0.0,0 STARLINK-5541,1 56475U 23064AD  24222.83717154 -.00003546  00000-0 -28958-3 0  9995,2 56475  70.0007 138.8550 0002810 266.2046  93.8792 14.98323415 69698,6950.213,96.107,574.031,570.125,0.0
56475.0,STARLINK-5541,PAYLOAD,2024-08-09 21:41:39,14.98324032,0.0002766,70.0009,138.6864,265.6613,94.423,-0.0002744,-3.365e-05,0.0,0 STARLINK-5541,1 56475U 23064AD  24222.90393096 -.00003365  00000-0 -27440-3 0  9992,2 56475  70.0009 138.6864 0002766 265.6613  94.4230 14.98324032 69341,6950.211,96.107,573.999,570.154,0.0
56475.0,STARLINK-5541,PAYLOAD,2024-08-10 04:06:08,14.98369418,0.0002713,70.0009,138.0147,272.2517,87.8331,0.0002881,3.35e-05,0.0,0 STARLINK-5541,1 56475U 23064AD  24223.17093165  .00003350  00000-0  28810-3 0  9990,2 56475  70.0009 138.0147 0002713 272.2517  87.8331 14.98369418 69747,6950.071,96.104,573.822,570.05,0.0
56475.0,STARLINK-5541,PAYLOAD,2024-08-10 14:00:01,14.9828472,0.0002973,70.001,136.9744,267.3742,156.5376,0.0079815,0.00096349,0.0,0 STARLINK-5541,1 56475U 23064AD  24223.58335648  .00096349  00000-0  79815-2 0  9990,2 56475  70.0010 136.9744 0002973 267.3742 156.5376 14.98284720 69804,6950.333,96.11,574.264,570.132,0.0
56475.0,STARLINK-5541,PAYLOAD,2024-08-10 22:00:00,14.98389048,0.0003016,70.0011,136.1342,270.2402,151.0725,-0.0039536,-0.00047024,0.0,0 STARLINK-5541,1 56475U 23064AD  24223.91667824 -.00047024  00000-0 -39536-2 0  9995,2 56475  70.0011 136.1342 0003016 270.2402 151.0725 14.98389048  5724,6950.01,96.103,573.971,569.779,0.0
